SMOS                    
1 36036U 09059A   26095.49647119  .00000395  00000+0  13985-3 0  9999
2 36036  98.4435 283.8894 0000980  98.4115 261.7185 14.39780718862992
YAOGAN-7                
1 36110U 09069A   26095.64832840  .00000909  00000+0  13305-3 0  9994
2 36110  98.0165 341.9297 0023244 273.6776  86.1777 14.77938157878911
TANDEM-X                
1 36605U 10030A   26095.47313995  .00001772  00000+0  87563-4 0  9996
2 36605  97.4457 104.2157 0001896  78.8360 281.3088 15.19154704875607
CARTOSAT-2B             
1 36795U 10035A   26095.86442980  .00000818  00000+0  11884-3 0  9993
2 36795  98.0031 146.8471 0012573  66.2997 293.9531 14.78586374849164
YAOGAN-10               
1 36834U 10038A   26095.86811858  .00001450  00000+0  17574-3 0  9999
2 36834  97.9043 119.8386 0001478  82.9137  19.4124 14.85129824846478
COSMO-SKYMED 4          
1 37216U 10060A   26095.80241655  .00001395  00000+0  18178-3 0  9994
2 37216  97.8875 280.4482 0001482  82.8141 277.3241 14.82163604833849
RESOURCESAT-2           
1 37387U 11015A   26095.80614766 -.00000409  00000+0 -16623-3 0  9991
2 37387  98.7700 163.7313 0012403 106.8291 253.4247 14.21642532775895
HAIYANG-2A              
1 37781U 11043A   26095.87852884 -.00000132  00000+0 -89069-4 0  9990
2 37781  99.3415 100.0239 0003850 226.0753 134.0080 13.76911892736712
RASAT                   
1 37791U 11044D   26095.87967802  .00001026  00000+0  18654-3 0  9991
2 37791  98.0550 188.3945 0021851  63.3477  73.9398 14.68100217782579
SRMSAT                  
1 37841U 11058D   26095.49484994  .00000471  00000+0  11205-3 0  9994
2 37841  19.9707 139.4576 0011902 123.4189  11.6801 14.11557864747539
PLEIADES 1A             
1 38012U 11076F   26095.83380766  .00000696  00000+0  15954-3 0  9999
2 38012  98.2003 171.8983 0001367  72.7309  64.7412 14.58565932761444
ZIYUAN 1-02C (ZY 1-02C) 
1 38038U 11079A   26095.87212208  .00000694  00000+0  24280-3 0  9999
2 38038  98.4121 164.6781 0006935 154.5162 332.7867 14.38154989748815
ARIRANG-3 (KOMPSAT-3)   
1 38338U 12025B   26095.83680637  .00000818  00000+0  17180-3 0  9994
2 38338  98.1108  54.5769 0005228 356.8117   3.3051 14.62141533740775
EXACTVIEW-1 (ADS-1B)    
1 38709U 12039C   26095.84792789  .00000192  00000+0  10171-3 0  9992
2 38709  98.9669 211.6413 0011181  25.5095 334.6633 14.24962728712409
SPOT 6                  
1 38755U 12047A   26095.82265980  .00000516  00000+0  12080-3 0  9999
2 38755  98.2168 163.9607 0001460  83.1885 276.9480 14.58565600722502
PLEIADES 1B             
1 39019U 12068A   26095.84210248  .00000586  00000+0  13587-3 0  9995
2 39019  98.1974 171.8802 0001293  77.4088 282.7256 14.58552706710304
GOKTURK 2               
1 39030U 12073A   26095.85815147  .00001470  00000+0  22309-3 0  9999
2 39030  97.6864 296.8966 0001178 109.0464 251.0874 14.75475889713842
