[{"OBJECT_NAME":"SMOS","OBJECT_ID":"2009-059A","EPOCH":"2026-04-05T11:54:55.110816","MEAN_MOTION":14.39780718,"ECCENTRICITY":9.806e-5,"INCLINATION":98.4435,"RA_OF_ASC_NODE":283.8894,"ARG_OF_PERICENTER":98.4115,"MEAN_ANOMALY":261.7185,"EPHEMERIS_TYPE":0,"CLASSIFICATION_TYPE":"U","NORAD_CAT_ID":36036,"ELEMENT_SET_NO":999,"REV_AT_EPOCH":86299,"BSTAR":0.0001398549,"MEAN_MOTION_DOT":3.95e-6,"MEAN_MOTION_DDOT":0},{"OBJECT_NAME":"YAOGAN-7","OBJECT_ID":"2009-069A","EPOCH":"2026-04-05T15:33:35.573760","MEAN_MOTION":14.77938157,"ECCENTRICITY":0.0023244,"INCLINATION":98.0165,"RA_OF_ASC_NODE":341.9297,"ARG_OF_PERICENTER":273.6776,"MEAN_ANOMALY":86.1777,"EPHEMERIS_TYPE":0,"CLASSIFICATION_TYPE":"U","NORAD_CAT_ID":36110,"ELEMENT_SET_NO":999,"REV_AT_EPOCH":87891,"BSTAR":0.00013305,"MEAN_MOTION_DOT":9.09e-6,"MEAN_MOTION_DDOT":0},{"OBJECT_NAME":"TANDEM-X","OBJECT_ID":"2010-030A","EPOCH":"2026-04-05T11:21:19.291680","MEAN_MOTION":15.19154704,"ECCENTRICITY":0.0001896,"INCLINATION":97.4457,"RA_OF_ASC_NODE":104.2157,"ARG_OF_PERICENTER":78.836,"MEAN_ANOMALY":281.3088,"EPHEMERIS_TYPE":0,"CLASSIFICATION_TYPE":"U","NORAD_CAT_ID":36605,"ELEMENT_SET_NO":999,"REV_AT_EPOCH":87560,"BSTAR":8.7563e-5,"MEAN_MOTION_DOT":1.772e-5,"MEAN_MOTION_DDOT":0},{"OBJECT_NAME":"CARTOSAT-2B","OBJECT_ID":"2010-035A","EPOCH":"2026-04-05T20:44:46.734720","MEAN_MOTION":14.78586374,"ECCENTRICITY":0.0012573,"INCLINATION":98.0031,"RA_OF_ASC_NODE":146.8471,"ARG_OF_PERICENTER":66.2997,"MEAN_ANOMALY":293.9531,"EPHEMERIS_TYPE":0,"CLASSIFICATION_TYPE":"U","NORAD_CAT_ID":36795,"ELEMENT_SET_NO":999,"REV_AT_EPOCH":84916,"BSTAR":0.00011884,"MEAN_MOTION_DOT":8.18e-6,"MEAN_MOTION_DDOT":0},{"OBJECT_NAME":"YAOGAN-10","OBJECT_ID":"2010-038A","EPOCH":"2026-04-05T20:50:05.445312","MEAN_MOTION":14.85129824,"ECCENTRICITY":0.0001478,"INCLINATION":97.9043,"RA_OF_ASC_NODE":119.8386,"ARG_OF_PERICENTER":82.9137,"MEAN_ANOMALY":19.4124,"EPHEMERIS_TYPE":0,"CLASSIFICATION_TYPE":"U","NORAD_CAT_ID":36834,"ELEMENT_SET_NO":999,"REV_AT_EPOCH":84647,"BSTAR":0.00017574,"MEAN_MOTION_DOT":1.45e-5,"MEAN_MOTION_DDOT":0},{"OBJECT_NAME":"COSMO-SKYMED 4","OBJECT_ID":"2010-060A","EPOCH":"2026-04-05T19:15:28.789920","MEAN_MOTION":14.82163604,"ECCENTRICITY":0.0001482,"INCLINATION":97.8875,"RA_OF_ASC_NODE":280.4482,"ARG_OF_PERICENTER":82.8141,"MEAN_ANOMALY":277.3241,"EPHEMERIS_TYPE":0,"CLASSIFICATION_TYPE":"U","NORAD_CAT_ID":37216,"ELEMENT_SET_NO":999,"REV_AT_EPOCH":83384,"BSTAR":0.00018178,"MEAN_MOTION_DOT":1.395e-5,"MEAN_MOTION_DDOT":0},{"OBJECT_NAME":"RESOURCESAT-2","OBJECT_ID":"2011-015A","EPOCH":"2026-04-05T19:20:51.157824","MEAN_MOTION":14.21642532,"ECCENTRICITY":0.0012403,"INCLINATION":98.77,"RA_OF_ASC_NODE":163.7313,"ARG_OF_PERICENTER":106.8291,"MEAN_ANOMALY":253.4247,"EPHEMERIS_TYPE":0,"CLASSIFICATION_TYPE":"U","NORAD_CAT_ID":37387,"ELEMENT_SET_NO":999,"REV_AT_EPOCH":77589,"BSTAR":-0.00016623,"MEAN_MOTION_DOT":-4.09e-6,"MEAN_MOTION_DDOT":0},{"OBJECT_NAME":"HAIYANG-2A","OBJECT_ID":"2011-043A","EPOCH":"2026-04-05T21:05:04.891776","MEAN_MOTION":13.76911892,"ECCENTRICITY":0.000385,"INCLINATION":99.3415,"RA_OF_ASC_NODE":100.0239,"ARG_OF_PERICENTER":226.0753,"MEAN_ANOMALY":134.008,"EPHEMERIS_TYPE":0,"CLASSIFICATION_TYPE":"U","NORAD_CAT_ID":37781,"ELEMENT_SET_NO":999,"REV_AT_EPOCH":73671,"BSTAR":-8.9069e-5,"MEAN_MOTION_DOT":-1.32e-6,"MEAN_MOTION_DDOT":0},{"OBJECT_NAME":"RASAT","OBJECT_ID":"2011-044D","EPOCH":"2026-04-05T21:06:44.180928","MEAN_MOTION":14.68100217,"ECCENTRICITY":0.0021851,"INCLINATION":98.055,"RA_OF_ASC_NODE":188.3945,"ARG_OF_PERICENTER":63.3477,"MEAN_ANOMALY":73.9398,"EPHEMERIS_TYPE":0,"CLASSIFICATION_TYPE":"U","NORAD_CAT_ID":37791,"ELEMENT_SET_NO":999,"REV_AT_EPOCH":78257,"BSTAR":0.00018654,"MEAN_MOTION_DOT":1.026e-5,"MEAN_MOTION_DDOT":0},{"OBJECT_NAME":"SRMSAT","OBJECT_ID":"2011-058D","EPOCH":"2026-04-05T11:52:35.034816","MEAN_MOTION":14.11557864,"ECCENTRICITY":0.00119027,"INCLINATION":19.9707,"RA_OF_ASC_NODE":139.4576,"ARG_OF_PERICENTER":123.4189,"MEAN_ANOMALY":11.6801,"EPHEMERIS_TYPE":0,"CLASSIFICATION_TYPE":"U","NORAD_CAT_ID":37841,"ELEMENT_SET_NO":999,"REV_AT_EPOCH":74753,"BSTAR":0.00011204728,"MEAN_MOTION_DOT":4.71e-6,"MEAN_MOTION_DDOT":0},{"OBJECT_NAME":"PLEIADES 1A","OBJECT_ID":"2011-076F","EPOCH":"2026-04-05T20:00:40.981824","MEAN_MOTION":14.58565932,"ECCENTRICITY":0.0001367,"INCLINATION":98.2003,"RA_OF_ASC_NODE":171.8983,"ARG_OF_PERICENTER":72.7309,"MEAN_ANOMALY":64.7412,"EPHEMERIS_TYPE":0,"CLASSIFICATION_TYPE":"U","NORAD_CAT_ID":38012,"ELEMENT_SET_NO":999,"REV_AT_EPOCH":76144,"BSTAR":0.00015954,"MEAN_MOTION_DOT":6.96e-6,"MEAN_MOTION_DDOT":0},{"OBJECT_NAME":"ZIYUAN 1-02C (ZY 1-02C)","OBJECT_ID":"2011-079A","EPOCH":"2026-04-05T20:55:51.347712","MEAN_MOTION":14.38154989,"ECCENTRICITY":0.0006935,"INCLINATION":98.4121,"RA_OF_ASC_NODE":164.6781,"ARG_OF_PERICENTER":154.5162,"MEAN_ANOMALY":332.7867,"EPHEMERIS_TYPE":0,"CLASSIFICATION_TYPE":"U","NORAD_CAT_ID":38038,"ELEMENT_SET_NO":999,"REV_AT_EPOCH":74881,"BSTAR":0.0002428,"MEAN_MOTION_DOT":6.94e-6,"MEAN_MOTION_DDOT":0},{"OBJECT_NAME":"ARIRANG-3 (KOMPSAT-3)","OBJECT_ID":"2012-025B","EPOCH":"2026-04-05T20:05:00.070368","MEAN_MOTION":14.62141533,"ECCENTRICITY":0.0005228,"INCLINATION":98.1108,"RA_OF_ASC_NODE":54.5769,"ARG_OF_PERICENTER":356.8117,"MEAN_ANOMALY":3.3051,"EPHEMERIS_TYPE":0,"CLASSIFICATION_TYPE":"U","NORAD_CAT_ID":38338,"ELEMENT_SET_NO":999,"REV_AT_EPOCH":74077,"BSTAR":0.0001718,"MEAN_MOTION_DOT":8.18e-6,"MEAN_MOTION_DDOT":0},{"OBJECT_NAME":"EXACTVIEW-1 (ADS-1B)","OBJECT_ID":"2012-039C","EPOCH":"2026-04-05T20:21:00.969696","MEAN_MOTION":14.24962728,"ECCENTRICITY":0.0011181,"INCLINATION":98.9669,"RA_OF_ASC_NODE":211.6413,"ARG_OF_PERICENTER":25.5095,"MEAN_ANOMALY":334.6633,"EPHEMERIS_TYPE":0,"CLASSIFICATION_TYPE":"U","NORAD_CAT_ID":38709,"ELEMENT_SET_NO":999,"REV_AT_EPOCH":71240,"BSTAR":0.00010171,"MEAN_MOTION_DOT":1.92e-6,"MEAN_MOTION_DDOT":0},{"OBJECT_NAME":"SPOT 6","OBJECT_ID":"2012-047A","EPOCH":"2026-04-05T19:44:37.806720","MEAN_MOTION":14.585656,"ECCENTRICITY":0.000146,"INCLINATION":98.2168,"RA_OF_ASC_NODE":163.9607,"ARG_OF_PERICENTER":83.1885,"MEAN_ANOMALY":276.948,"EPHEMERIS_TYPE":0,"CLASSIFICATION_TYPE":"U","NORAD_CAT_ID":38755,"ELEMENT_SET_NO":999,"REV_AT_EPOCH":72250,"BSTAR":0.0001208,"MEAN_MOTION_DOT":5.16e-6,"MEAN_MOTION_DDOT":0},{"OBJECT_NAME":"PLEIADES 1B","OBJECT_ID":"2012-068A","EPOCH":"2026-04-05T20:12:37.654272","MEAN_MOTION":14.58552706,"ECCENTRICITY":0.0001293,"INCLINATION":98.1974,"RA_OF_ASC_NODE":171.8802,"ARG_OF_PERICENTER":77.4088,"MEAN_ANOMALY":282.7256,"EPHEMERIS_TYPE":0,"CLASSIFICATION_TYPE":"U","NORAD_CAT_ID":39019,"ELEMENT_SET_NO":999,"REV_AT_EPOCH":71030,"BSTAR":0.00013587,"MEAN_MOTION_DOT":5.86e-6,"MEAN_MOTION_DDOT":0},{"OBJECT_NAME":"GOKTURK 2","OBJECT_ID":"2012-073A","EPOCH":"2026-04-05T20:35:44.287008","MEAN_MOTION":14.75475889,"ECCENTRICITY":0.0001178,"INCLINATION":97.6864,"RA_OF_ASC_NODE":296.8966,"ARG_OF_PERICENTER":109.0464,"MEAN_ANOMALY":251.0874,"EPHEMERIS_TYPE":0,"CLASSIFICATION_TYPE":"U","NORAD_CAT_ID":39030,"ELEMENT_SET_NO":999,"REV_AT_EPOCH":71384,"BSTAR":0.00022309,"MEAN_MOTION_DOT":1.47e-5,"MEAN_MOTION_DDOT":0}]
